FENGYUN 1C DEB          
1 30708U 99025ARS 17345.91981778 -.00000027  00000-0  10198-4 0  9996
2 30708  98.9726   8.6005 0008485 185.6259 293.3295 14.10791757556125
